{
  "type": "FeatureCollection",
  "features": [
    {
      "type": "Feature",
      "properties": {
        "norad_id": 41866,
        "name": "GOES 16",
        "group": "weather",
        "lat": -0.04142454829408165,
        "lon": -37.085684185601444,
        "alt_km": 35780.12202155545,
        "timestamp": "2025-12-04T23:34:05.374164+00:00",
        "meta_object_name": "GOES 16",
        "meta_object_id": "2016-071A",
        "meta_epoch": "2025-12-04T13:13:44.969088",
        "meta_mean_motion": 1.00270953,
        "meta_eccentricity": 0.0003485,
        "meta_inclination": 0.0622,
        "meta_ra_of_asc_node": 105.2587,
        "meta_arg_of_pericenter": 152.5137,
        "meta_mean_anomaly": 269.6161,
        "meta_ephemeris_type": 0,
        "meta_classification_type": "U",
        "meta_norad_cat_id": 41866,
        "meta_element_set_no": 999,
        "meta_rev_at_epoch": 3315,
        "meta_bstar": 0,
        "meta_mean_motion_dot": -7.6e-07,
        "meta_mean_motion_ddot": 0,
        "tle_line1": "1 41866U 16071A   25338.55121492 -.00000076  00000+0  00000+0 0  9992",
        "tle_line2": "2 41866   0.0622 105.2587 0003485 152.5137 269.6161  1.00270953 33159"
      },
      "geometry": {
        "type": "Point",
        "coordinates": [
          -37.085684185601444,
          -0.04142454829408165
        ]
      }
    },
    {
      "type": "Feature",
      "properties": {
        "norad_id": 41882,
        "name": "FENGYUN 4A",
        "group": "weather",
        "lat": 1.7122239600478424,
        "lon": -168.70632975282487,
        "alt_km": 35766.578151983034,
        "timestamp": "2025-12-04T23:34:05.374177+00:00",
        "meta_object_name": "FENGYUN 4A",
        "meta_object_id": "2016-077A",
        "meta_epoch": "2025-12-04T17:44:19.051296",
        "meta_mean_motion": 1.0027747,
        "meta_eccentricity": 0.0005054,
        "meta_inclination": 1.8275,
        "meta_ra_of_asc_node": 82.4706,
        "meta_arg_of_pericenter": 142.5495,
        "meta_mean_anomaly": 238.6253,
        "meta_ephemeris_type": 0,
        "meta_classification_type": "U",
        "meta_norad_cat_id": 41882,
        "meta_element_set_no": 999,
        "meta_rev_at_epoch": 3298,
        "meta_bstar": 0,
        "meta_mean_motion_dot": -3.43e-06,
        "meta_mean_motion_ddot": 0,
        "tle_line1": "1 41882U 16077A   25338.73910939 -.00000343  00000+0  00000+0 0  9995",
        "tle_line2": "2 41882   1.8275  82.4706 0005054 142.5495 238.6253  1.00277470 32988"
      },
      "geometry": {
        "type": "Point",
        "coordinates": [
          -168.70632975282487,
          1.7122239600478424
        ]
      }
    },
    {
      "type": "Feature",
      "properties": {
        "norad_id": 41884,
        "name": "CYGFM05",
        "group": "weather",
        "lat": -34.87180561601189,
        "lon": 11.849707049529831,
        "alt_km": 433.1469019796623,
        "timestamp": "2025-12-04T23:34:05.374188+00:00",
        "meta_object_name": "CYGFM05",
        "meta_object_id": "2016-078A",
        "meta_epoch": "2025-12-04T16:11:56.188032",
        "meta_mean_motion": 15.47189275,
        "meta_eccentricity": 0.0009404,
        "meta_inclination": 34.9586,
        "meta_ra_of_asc_node": 99.7926,
        "meta_arg_of_pericenter": 106.2136,
        "meta_mean_anomaly": 253.9621,
        "meta_ephemeris_type": 0,
        "meta_classification_type": "U",
        "meta_norad_cat_id": 41884,
        "meta_element_set_no": 999,
        "meta_rev_at_epoch": 49851,
        "meta_bstar": 0.00067027,
        "meta_mean_motion_dot": 0.00035272,
        "meta_mean_motion_ddot": 0,
        "tle_line1": "1 41884U 16078A   25338.67495588  .00035272  00000+0  67027-3 0  9993",
        "tle_line2": "2 41884  34.9586  99.7926 0009404 106.2136 253.9621 15.47189275498514"
      },
      "geometry": {
        "type": "Point",
        "coordinates": [
          11.849707049529831,
          -34.87180561601189
        ]
      }
    },
    {
      "type": "Feature",
      "properties": {
        "norad_id": 41885,
        "name": "CYGFM04",
        "group": "weather",
        "lat": 33.88881770345503,
        "lon": 146.9994309170434,
        "alt_km": 408.07627617368325,
        "timestamp": "2025-12-04T23:34:05.374199+00:00",
        "meta_object_name": "CYGFM04",
        "meta_object_id": "2016-078B",
        "meta_epoch": "2025-12-04T15:30:30.236256",
        "meta_mean_motion": 15.49858101,
        "meta_eccentricity": 0.0008484,
        "meta_inclination": 34.9351,
        "meta_ra_of_asc_node": 74.9891,
        "meta_arg_of_pericenter": 135.8946,
        "meta_mean_anomaly": 224.2453,
        "meta_ephemeris_type": 0,
        "meta_classification_type": "U",
        "meta_norad_cat_id": 41885,
        "meta_element_set_no": 999,
        "meta_rev_at_epoch": 49868,
        "meta_bstar": 0.00073562,
        "meta_mean_motion_dot": 0.00042553,
        "meta_mean_motion_ddot": 0,
        "tle_line1": "1 41885U 16078B   25338.64618329  .00042553  00000+0  73562-3 0  9992",
        "tle_line2": "2 41885  34.9351  74.9891 0008484 135.8946 224.2453 15.49858101498680"
      },
      "geometry": {
        "type": "Point",
        "coordinates": [
          146.9994309170434,
          33.88881770345503
        ]
      }
    },
    {
      "type": "Feature",
      "properties": {
        "norad_id": 41886,
        "name": "CYGFM02",
        "group": "weather",
        "lat": 26.70758369458511,
        "lon": 117.31169699871388,
        "alt_km": 407.5964757625961,
        "timestamp": "2025-12-04T23:34:05.374209+00:00",
        "meta_object_name": "CYGFM02",
        "meta_object_id": "2016-078C",
        "meta_epoch": "2025-12-04T15:37:24.347136",
        "meta_mean_motion": 15.51203818,
        "meta_eccentricity": 0.0010208,
        "meta_inclination": 34.9438,
        "meta_ra_of_asc_node": 73.3872,
        "meta_arg_of_pericenter": 135.3392,
        "meta_mean_anomaly": 224.8154,
        "meta_ephemeris_type": 0,
        "meta_classification_type": "U",
        "meta_norad_cat_id": 41886,
        "meta_element_set_no": 999,
        "meta_rev_at_epoch": 49881,
        "meta_bstar": 0.00072443,
        "meta_mean_motion_dot": 0.00044003,
        "meta_mean_motion_ddot": 0,
        "tle_line1": "1 41886U 16078C   25338.65097624  .00044003  00000+0  72443-3 0  9992",
        "tle_line2": "2 41886  34.9438  73.3872 0010208 135.3392 224.8154 15.51203818498817"
      },
      "geometry": {
        "type": "Point",
        "coordinates": [
          117.31169699871388,
          26.70758369458511
        ]
      }
    },
    {
      "type": "Feature",
      "properties": {
        "norad_id": 41887,
        "name": "CYGFM01",
        "group": "weather",
        "lat": -29.26887634631528,
        "lon": 46.79984067205946,
        "alt_km": 430.6982664744164,
        "timestamp": "2025-12-04T23:34:05.374220+00:00",
        "meta_object_name": "CYGFM01",
        "meta_object_id": "2016-078D",
        "meta_epoch": "2025-12-04T16:04:50.730240",
        "meta_mean_motion": 15.47756849,
        "meta_eccentricity": 0.0008986,
        "meta_inclination": 34.9415,
        "meta_ra_of_asc_node": 102.2305,
        "meta_arg_of_pericenter": 97.7276,
        "meta_mean_anomaly": 262.4466,
        "meta_ephemeris_type": 0,
        "meta_classification_type": "U",
        "meta_norad_cat_id": 41887,
        "meta_element_set_no": 999,
        "meta_rev_at_epoch": 49845,
        "meta_bstar": 0.00071426,
        "meta_mean_motion_dot": 0.00038352,
        "meta_mean_motion_ddot": 0,
        "tle_line1": "1 41887U 16078D   25338.67003160  .00038352  00000+0  71426-3 0  9997",
        "tle_line2": "2 41887  34.9415 102.2305 0008986  97.7276 262.4466 15.47756849498454"
      },
      "geometry": {
        "type": "Point",
        "coordinates": [
          46.79984067205946,
          -29.26887634631528
        ]
      }
    },
    {
      "type": "Feature",
      "properties": {
        "norad_id": 41888,
        "name": "CYGFM08",
        "group": "weather",
        "lat": -23.306047164641864,
        "lon": 45.182597737229614,
        "alt_km": 428.24825144856277,
        "timestamp": "2025-12-04T23:34:05.374231+00:00",
        "meta_object_name": "CYGFM08",
        "meta_object_id": "2016-078E",
        "meta_epoch": "2025-12-04T16:01:20.267616",
        "meta_mean_motion": 15.48939528,
        "meta_eccentricity": 0.0010708,
        "meta_inclination": 34.9457,
        "meta_ra_of_asc_node": 85.3323,
        "meta_arg_of_pericenter": 123.2398,
        "meta_mean_anomaly": 236.9351,
        "meta_ephemeris_type": 0,
        "meta_classification_type": "U",
        "meta_norad_cat_id": 41888,
        "meta_element_set_no": 999,
        "meta_rev_at_epoch": 49868,
        "meta_bstar": 0.00072561,
        "meta_mean_motion_dot": 0.00040654,
        "meta_mean_motion_ddot": 0,
        "tle_line1": "1 41888U 16078E   25338.66759569  .00040654  00000+0  72561-3 0  9997",
        "tle_line2": "2 41888  34.9457  85.3323 0010708 123.2398 236.9351 15.48939528498689"
      },
      "geometry": {
        "type": "Point",
        "coordinates": [
          45.182597737229614,
          -23.306047164641864
        ]
      }
    }
  ]
}